{"type": "FeatureCollection", "features": [ {"type": "Feature", "properties": {"norad_id": 41785, "name": "ALSAT 1B", "group": "resource", "lat": -3.7669747793736, "lon": 12.310053111823823, "alt_km": 655.0863537256864, "timestamp": "2025-12-26T14:28:47.346557+00:00", "meta": {"OBJECT_NAME": "ALSAT 1B", "OBJECT_ID": "2016-059C", "EPOCH": "2025-12-26T06:20:25.464768", "MEAN_MOTION": 14.72088889, "ECCENTRICITY": 0.00107332, "INCLINATION": 97.7811, "RA_OF_ASC_NODE": 11.4697, "ARG_OF_PERICENTER": 65.5954, "MEAN_ANOMALY": 294.6373, "EPHEMERIS_TYPE": 0, "CLASSIFICATION_TYPE": "U", "NORAD_CAT_ID": 41785, "ELEMENT_SET_NO": 999, "REV_AT_EPOCH": 49513, "BSTAR": 7.8238371e-05, "MEAN_MOTION_DOT": 4.45e-06, "MEAN_MOTION_DDOT": 0}, "tle": {"line1": "1 41785U 16059C   25360.26418362  .00000445  00000+0  78238-4 0  9998", "line2": "2 41785  97.7811  11.4697 0010733  65.5954 294.6373 14.72088889495137"}}, "geometry": {"type": "Point", "coordinates": [12.310053111823823, -3.7669747793736]}}, {"type": "Feature", "properties": {"norad_id": 41787, "name": "PATHFINDER 1", "group": "resource", "lat": -18.408946899611685, "lon": -179.8859879674404, "alt_km": 694.1352449146971, "timestamp": "2025-12-26T14:28:47.346567+00:00", "meta": {"OBJECT_NAME": "PATHFINDER 1", "OBJECT_ID": "2016-059E", "EPOCH": "2025-12-26T07:01:59.666016", "MEAN_MOTION": 14.67344768, "ECCENTRICITY": 0.0029542, "INCLINATION": 97.8139, "RA_OF_ASC_NODE": 2.4377, "ARG_OF_PERICENTER": 39.7805, "MEAN_ANOMALY": 320.5559, "EPHEMERIS_TYPE": 0, "CLASSIFICATION_TYPE": "U", "NORAD_CAT_ID": 41787, "ELEMENT_SET_NO": 999, "REV_AT_EPOCH": 49435, "BSTAR": 0.00016619917, "MEAN_MOTION_DOT": 8.98e-06, "MEAN_MOTION_DDOT": 0}, "tle": {"line1": "1 41787U 16059E   25360.29305169  .00000898  00000+0  16620-3 0  9991", "line2": "2 41787  97.8139   2.4377 0029542  39.7805 320.5559 14.67344768494357"}}, "geometry": {"type": "Point", "coordinates": [-179.8859879674404, -18.408946899611685]}}, {"type": "Feature", "properties": {"norad_id": 41790, "name": "SCATSAT 1", "group": "resource", "lat": 49.62315556344633, "lon": 47.750180571536994, "alt_km": 595.1349276368373, "timestamp": "2025-12-26T14:28:47.346577+00:00", "meta": {"OBJECT_NAME": "SCATSAT 1", "OBJECT_ID": "2016-059H", "EPOCH": "2025-12-26T02:53:17.989440", "MEAN_MOTION": 14.78978237, "ECCENTRICITY": 0.00564317, "INCLINATION": 98.1446, "RA_OF_ASC_NODE": 56.9567, "ARG_OF_PERICENTER": 85.8593, "MEAN_ANOMALY": 274.9065, "EPHEMERIS_TYPE": 0, "CLASSIFICATION_TYPE": "U", "NORAD_CAT_ID": 41790, "ELEMENT_SET_NO": 999, "REV_AT_EPOCH": 7600, "BSTAR": 0.00019672172, "MEAN_MOTION_DOT": 1.435e-05, "MEAN_MOTION_DDOT": 0}, "tle": {"line1": "1 41790U 16059H   25360.12034710  .00001435  00000+0  19672-3 0  9996", "line2": "2 41790  98.1446  56.9567 0056431  85.8593 274.9065 14.78978237 76002"}}, "geometry": {"type": "Point", "coordinates": [47.750180571536994, 49.62315556344633]}}, {"type": "Feature", "properties": {"norad_id": 41875, "name": "GOKTURK 1A", "group": "resource", "lat": 48.62165506055947, "lon": -116.56927763872955, "alt_km": 679.0114972945348, "timestamp": "2025-12-26T14:28:47.346587+00:00", "meta": {"OBJECT_NAME": "GOKTURK 1A", "OBJECT_ID": "2016-073A", "EPOCH": "2025-12-26T06:02:48.988896", "MEAN_MOTION": 14.62795551, "ECCENTRICITY": 0.00012791, "INCLINATION": 98.1423, "RA_OF_ASC_NODE": 252.4372, "ARG_OF_PERICENTER": 81.6346, "MEAN_ANOMALY": 278.5001, "EPHEMERIS_TYPE": 0, "CLASSIFICATION_TYPE": "U", "NORAD_CAT_ID": 41875, "ELEMENT_SET_NO": 999, "REV_AT_EPOCH": 48354, "BSTAR": 0.00014392027, "MEAN_MOTION_DOT": 6.87e-06, "MEAN_MOTION_DDOT": 0}, "tle": {"line1": "1 41875U 16073A   25360.25195589  .00000687  00000+0  14392-3 0  9994", "line2": "2 41875  98.1423 252.4372 0001279  81.6346 278.5001 14.62795551483548"}}, "geometry": {"type": "Point", "coordinates": [-116.56927763872955, 48.62165506055947]}}, {"type": "Feature", "properties": {"norad_id": 41877, "name": "RESOURCESAT-2A", "group": "resource", "lat": -26.063229375383138, "lon": -113.95441137529369, "alt_km": 824.3668352587383, "timestamp": "2025-12-26T14:28:47.346597+00:00", "meta": {"OBJECT_NAME": "RESOURCESAT-2A", "OBJECT_ID": "2016-074A", "EPOCH": "2025-12-26T06:45:20.501856", "MEAN_MOTION": 14.21604824, "ECCENTRICITY": 0.00016614, "INCLINATION": 98.7735, "RA_OF_ASC_NODE": 70.0576, "ARG_OF_PERICENTER": 196.8691, "MEAN_ANOMALY": 163.2432, "EPHEMERIS_TYPE": 0, "CLASSIFICATION_TYPE": "U", "NORAD_CAT_ID": 41877, "ELEMENT_SET_NO": 999, "REV_AT_EPOCH": 46973, "BSTAR": 2.460068e-06, "MEAN_MOTION_DOT": -3.9e-07, "MEAN_MOTION_DDOT": 0}, "tle": {"line1": "1 41877U 16074A   25360.28148729 -.00000039  00000+0  24601-5 0  9992", "line2": "2 41877  98.7735  70.0576 0001661 196.8691 163.2432 14.21604824469739"}}, "geometry": {"type": "Point", "coordinates": [-113.95441137529369, -26.063229375383138]}}, {"type": "Feature", "properties": {"norad_id": 41948, "name": "CARTOSAT-2D", "group": "resource", "lat": 38.04229381255298, "lon": 52.02211256478139, "alt_km": 504.58893145236834, "timestamp": "2025-12-26T14:28:47.346607+00:00", "meta": {"OBJECT_NAME": "CARTOSAT-2D", "OBJECT_ID": "2017-008A", "EPOCH": "2025-12-26T04:49:35.356224", "MEAN_MOTION": 15.19196843, "ECCENTRICITY": 0.00054545, "INCLINATION": 97.4367, "RA_OF_ASC_NODE": 57.4924, "ARG_OF_PERICENTER": 115.5347, "MEAN_ANOMALY": 244.6452, "EPHEMERIS_TYPE": 0, "CLASSIFICATION_TYPE": "U", "NORAD_CAT_ID": 41948, "ELEMENT_SET_NO": 999, "REV_AT_EPOCH": 49131, "BSTAR": 0.00016995586, "MEAN_MOTION_DOT": 3.509e-05, "MEAN_MOTION_DDOT": 0}, "tle": {"line1": "1 41948U 17008A   25360.20110366  .00003509  00000+0  16996-3 0  9997", "line2": "2 41948  97.4367  57.4924 0005454 115.5347 244.6452 15.19196843491311"}}, "geometry": {"type": "Point", "coordinates": [52.02211256478139, 38.04229381255298]}}, {"type": "Feature", "properties": {"norad_id": 42063, "name": "SENTINEL-2B", "group": "resource", "lat": -80.61937439297213, "lon": 138.74391348930433, "alt_km": 797.1770521435192, "timestamp": "2025-12-26T14:28:47.346617+00:00", "meta": {"OBJECT_NAME": "SENTINEL-2B", "OBJECT_ID": "2017-013A", "EPOCH": "2025-12-26T06:29:25.982304", "MEAN_MOTION": 14.30815793, "ECCENTRICITY": 0.00011765, "INCLINATION": 98.5696, "RA_OF_ASC_NODE": 72.5256, "ARG_OF_PERICENTER": 89.7264, "MEAN_ANOMALY": 270.4054, "EPHEMERIS_TYPE": 0, "CLASSIFICATION_TYPE": "U", "NORAD_CAT_ID": 42063, "ELEMENT_SET_NO": 999, "REV_AT_EPOCH": 45991, "BSTAR": 3.9162552e-05, "MEAN_MOTION_DOT": 5.9e-07, "MEAN_MOTION_DDOT": 0}, "tle": {"line1": "1 42063U 17013A   25360.27043961  .00000059  00000+0  39163-4 0  9994", "line2": "2 42063  98.5696  72.5256 0001176  89.7264 270.4054 14.30815793459919"}}, "geometry": {"type": "Point", "coordinates": [138.74391348930433, -80.61937439297213]}}, {"type": "Feature", "properties": {"norad_id": 42767, "name": "CARTOSAT-2E", "group": "resource", "lat": -51.567021692457956, "lon": 67.50395374095943, "alt_km": 516.6244001553032, "timestamp": "2025-12-26T14:28:47.346628+00:00", "meta": {"OBJECT_NAME": "CARTOSAT-2E", "OBJECT_ID": "2017-036C", "EPOCH": "2025-12-26T06:48:19.366272", "MEAN_MOTION": 15.19206829, "ECCENTRICITY": 0.00026617, "INCLINATION": 97.4536, "RA_OF_ASC_NODE": 57.6921, "ARG_OF_PERICENTER": 168.875, "MEAN_ANOMALY": 191.2544, "EPHEMERIS_TYPE": 0, "CLASSIFICATION_TYPE": "U", "NORAD_CAT_ID": 42767, "ELEMENT_SET_NO": 999, "REV_AT_EPOCH": 47189, "BSTAR": 0.00025347369, "MEAN_MOTION_DOT": 5.268e-05, "MEAN_MOTION_DDOT": 0}, "tle": {"line1": "1 42767U 17036C   25360.28355748  .00005268  00000+0  25347-3 0  9995", "line2": "2 42767  97.4536  57.6921 0002661 168.8750 191.2544 15.19206829471890"}}, "geometry": {"type": "Point", "coordinates": [67.50395374095943, -51.567021692457956]}}, {"type": "Feature", "properties": {"norad_id": 42920, "name": "FORMOSAT-5", "group": "resource", "lat": -12.897429306237163, "lon": -107.25980528331583, "alt_km": 724.2545300095117, "timestamp": "2025-12-26T14:28:47.346652+00:00", "meta": {"OBJECT_NAME": "FORMOSAT-5", "OBJECT_ID": "2017-049A", "EPOCH": "2025-12-26T05:18:57.780576", "MEAN_MOTION": 14.50768245, "ECCENTRICITY": 0.00098529, "INCLINATION": 98.2437, "RA_OF_ASC_NODE": 74.2686, "ARG_OF_PERICENTER": 255.3259, "MEAN_ANOMALY": 104.6844, "EPHEMERIS_TYPE": 0, "CLASSIFICATION_TYPE": "U", "NORAD_CAT_ID": 42920, "ELEMENT_SET_NO": 999, "REV_AT_EPOCH": 44159, "BSTAR": 7.4923249e-05, "MEAN_MOTION_DOT": 2.51e-06, "MEAN_MOTION_DDOT": 0}, "tle": {"line1": "1 42920U 17049A   25360.22150209  .00000251  00000+0  74923-4 0  9991", "line2": "2 42920  98.2437  74.2686 0009852 255.3259 104.6844 14.50768245441592"}}, "geometry": {"type": "Point", "coordinates": [-107.25980528331583, -12.897429306237163]}}, {"type": "Feature", "properties": {"norad_id": 42969, "name": "SENTINEL-5P", "group": "resource", "lat": 69.45124821878373, "lon": 143.41491211106435, "alt_km": 819.4841115809822, "timestamp": "2025-12-26T14:28:47.346664+00:00", "meta": {"OBJECT_NAME": "SENTINEL-5P", "OBJECT_ID": "2017-064A", "EPOCH": "2025-12-25T17:40:12.396576", "MEAN_MOTION": 14.19520693, "ECCENTRICITY": 0.00010643, "INCLINATION": 98.7802, "RA_OF_ASC_NODE": 298.2061, "ARG_OF_PERICENTER": 90.9871, "MEAN_ANOMALY": 269.1427, "EPHEMERIS_TYPE": 0, "CLASSIFICATION_TYPE": "U", "NORAD_CAT_ID": 42969, "ELEMENT_SET_NO": 999, "REV_AT_EPOCH": 42495, "BSTAR": 6.8608624e-05, "MEAN_MOTION_DOT": 1e-06, "MEAN_MOTION_DDOT": 0}, "tle": {"line1": "1 42969U 17064A   25359.73625459  .00000100  00000+0  68609-4 0  9996", "line2": "2 42969  98.7802 298.2061 0001064  90.9871 269.1427 14.19520693424954"}}, "geometry": {"type": "Point", "coordinates": [143.41491211106435, 69.45124821878373]}}]}